start=new Date('2022-01-11T00:00:00.000Z').valueOf();
sats=[{"ELEMENT_SET_NO":"999","COUNTRY_CODE":"US","APOAPSIS":"548.079","LAUNCH_DATE":"2020-08-07","EPOCH":"2022-01-10T13:43:21.994176","TIME_SYSTEM":"UTC","EPHEMERIS_TYPE":"0","DECAY_DATE":null,"SEMIMAJOR_AXIS":"6925.319","ECCENTRICITY":"0.00012920","REV_AT_EPOCH":"8033","NORAD_CAT_ID":"46083","MEAN_ELEMENT_THEORY":"SGP4","ARG_OF_PERICENTER":"87.2585","CENTER_NAME":"EARTH","MEAN_MOTION":"15.06409549","RA_OF_ASC_NODE":"76.1990","CLASSIFICATION_TYPE":"U","RCS_SIZE":"LARGE","OBJECT_NAME":"STARLINK-1579","TLE_LINE1":"1 46083U 20055BJ  22010.57178234  .00001455  00000-0  11654-3 0  9990","BSTAR":"0.00011654000000","OBJECT_TYPE":"PAYLOAD","REF_FRAME":"TEME","FILE":"3269118","MEAN_MOTION_DDOT":"0.0000000000000","INCLINATION":"53.0546","MEAN_MOTION_DOT":"0.00001455","PERIAPSIS":"546.290","OBJECT_ID":"2020-055BJ","SITE":"AFETR","GP_ID":"193623465","MEAN_ANOMALY":"272.8552","TLE_LINE2":"2 46083  53.0546  76.1990 0001292  87.2585 272.8552 15.06409549 80335","PERIOD":"95.592"},{"NORAD_CAT_ID":"46117","MEAN_ELEMENT_THEORY":"SGP4","ECCENTRICITY":"0.00023440","DECAY_DATE":null,"SEMIMAJOR_AXIS":"6925.336","REV_AT_EPOCH":"7742","EPHEMERIS_TYPE":"0","TIME_SYSTEM":"UTC","EPOCH":"2022-01-10T20:53:18.311712","LAUNCH_DATE":"2020-08-18","APOAPSIS":"548.824","COUNTRY_CODE":"US","ELEMENT_SET_NO":"999","CLASSIFICATION_TYPE":"U","RA_OF_ASC_NODE":"274.8744","MEAN_MOTION":"15.06404106","CENTER_NAME":"EARTH","ARG_OF_PERICENTER":"62.8756","MEAN_MOTION_DDOT":"0.0000000000000","FILE":"3269118","REF_FRAME":"TEME","OBJECT_TYPE":"PAYLOAD","BSTAR":"0.00005990800000","TLE_LINE1":"1 46117U 20057A   22010.87035083  .00000611  00000-0  59908-4 0  9995","OBJECT_NAME":"STARLINK-1585","RCS_SIZE":"LARGE","PERIOD":"95.592","TLE_LINE2":"2 46117  53.0535 274.8744 0002344  62.8756 297.2472 15.06404106 77425","MEAN_ANOMALY":"297.2472","SITE":"AFETR","GP_ID":"193622968","OBJECT_ID":"2020-057A","PERIAPSIS":"545.578","MEAN_MOTION_DOT":"0.00000611","INCLINATION":"53.0535"},{"ARG_OF_PERICENTER":"65.5560","MEAN_MOTION":"15.06406893","CENTER_NAME":"EARTH","RA_OF_ASC_NODE":"296.6130","CLASSIFICATION_TYPE":"U","COUNTRY_CODE":"US","APOAPSIS":"548.704","ELEMENT_SET_NO":"999","LAUNCH_DATE":"2020-08-18","EPOCH":"2022-01-10T11:33:19.722528","TIME_SYSTEM":"UTC","DECAY_DATE":null,"SEMIMAJOR_AXIS":"6925.327","ECCENTRICITY":"0.00021830","REV_AT_EPOCH":"7836","EPHEMERIS_TYPE":"0","NORAD_CAT_ID":"46118","MEAN_ELEMENT_THEORY":"SGP4","MEAN_MOTION_DOT":"0.00000551","INCLINATION":"53.0546","PERIAPSIS":"545.681","OBJECT_ID":"2020-057B","SITE":"AFETR","GP_ID":"193592308","TLE_LINE2":"2 46118  53.0546 296.6130 0002183  65.5560 294.5656 15.06406893 78366","PERIOD":"95.592","MEAN_ANOMALY":"294.5656","RCS_SIZE":"LARGE","OBJECT_NAME":"STARLINK-1588","TLE_LINE1":"1 46118U 20057B   22010.48147827  .00000551  00000-0  55899-4 0  9991","BSTAR":"0.00005589900000","OBJECT_TYPE":"PAYLOAD","REF_FRAME":"TEME","FILE":"3268856","MEAN_MOTION_DDOT":"0.0000000000000"},{"CLASSIFICATION_TYPE":"U","ARG_OF_PERICENTER":"64.0538","CENTER_NAME":"EARTH","MEAN_MOTION":"15.06412233","RA_OF_ASC_NODE":"298.4561","TIME_SYSTEM":"UTC","EPHEMERIS_TYPE":"0","SEMIMAJOR_AXIS":"6925.311","DECAY_DATE":null,"ECCENTRICITY":"0.00020470","REV_AT_EPOCH":"7828","NORAD_CAT_ID":"46119","MEAN_ELEMENT_THEORY":"SGP4","ELEMENT_SET_NO":"999","COUNTRY_CODE":"US","APOAPSIS":"548.594","LAUNCH_DATE":"2020-08-18","EPOCH":"2022-01-10T01:44:09.936672","GP_ID":"193593067","SITE":"AFETR","MEAN_ANOMALY":"296.0662","PERIOD":"95.591","TLE_LINE2":"2 46119  53.0558 298.4561 0002047  64.0538 296.0662 15.06412233 78286","INCLINATION":"53.0558","MEAN_MOTION_DOT":"0.00001977","PERIAPSIS":"545.758","OBJECT_ID":"2020-057C","OBJECT_TYPE":"PAYLOAD","REF_FRAME":"TEME","FILE":"3268856","MEAN_MOTION_DDOT":"0.0000000000000","RCS_SIZE":"LARGE","OBJECT_NAME":"STARLINK-1593","BSTAR":"0.00015155000000","TLE_LINE1":"1 46119U 20057C   22010.07233723  .00001977  00000-0  15155-3 0  9991"},{"CENTER_NAME":"EARTH","MEAN_MOTION":"15.06409022","RA_OF_ASC_NODE":"296.4306","ARG_OF_PERICENTER":"60.8673","CLASSIFICATION_TYPE":"U","EPOCH":"2022-01-10T12:31:43.262400","ELEMENT_SET_NO":"999","COUNTRY_CODE":"US","APOAPSIS":"548.584","LAUNCH_DATE":"2020-08-18","NORAD_CAT_ID":"46120","MEAN_ELEMENT_THEORY":"SGP4","TIME_SYSTEM":"UTC","EPHEMERIS_TYPE":"0","DECAY_DATE":null,"SEMIMAJOR_AXIS":"6925.321","ECCENTRICITY":"0.00020190","REV_AT_EPOCH":"7837","OBJECT_ID":"2020-057D","MEAN_MOTION_DOT":"0.00006061","INCLINATION":"53.0541","PERIAPSIS":"545.788","MEAN_ANOMALY":"299.2517","TLE_LINE2":"2 46120  53.0541 296.4306 0002019  60.8673 299.2517 15.06409022 78374","PERIOD":"95.592","SITE":"AFETR","GP_ID":"193593312","OBJECT_NAME":"STARLINK-1601","BSTAR":"0.00042536000000","TLE_LINE1":"1 46120U 20057D   22010.52202850  .00006061  00000-0  42536-3 0  9992","RCS_SIZE":"LARGE","FILE":"3268856","MEAN_MOTION_DDOT":"0.0000000000000","OBJECT_TYPE":"PAYLOAD","REF_FRAME":"TEME"},{"PERIOD":"95.592","TLE_LINE2":"2 46121  53.0550 276.8721 0002367  60.1082 300.0142 15.06409395 77356","MEAN_ANOMALY":"300.0142","SITE":"AFETR","GP_ID":"193592565","OBJECT_ID":"2020-057E","INCLINATION":"53.0550","MEAN_MOTION_DOT":"0.00002169","PERIAPSIS":"545.546","FILE":"3268856","MEAN_MOTION_DDOT":"0.0000000000000","OBJECT_TYPE":"PAYLOAD","REF_FRAME":"TEME","OBJECT_NAME":"STARLINK-1602","TLE_LINE1":"1 46121U 20057E   22010.42434535  .00002169  00000-0  16447-3 0  9996","BSTAR":"0.00016447000000","RCS_SIZE":"LARGE","CLASSIFICATION_TYPE":"U","MEAN_MOTION":"15.06409395","CENTER_NAME":"EARTH","RA_OF_ASC_NODE":"276.8721","ARG_OF_PERICENTER":"60.1082","MEAN_ELEMENT_THEORY":"SGP4","NORAD_CAT_ID":"46121","TIME_SYSTEM":"UTC","ECCENTRICITY":"0.00023670","DECAY_DATE":null,"SEMIMAJOR_AXIS":"6925.320","REV_AT_EPOCH":"7735","EPHEMERIS_TYPE":"0","EPOCH":"2022-01-10T10:11:03.438240","APOAPSIS":"548.824","COUNTRY_CODE":"US","ELEMENT_SET_NO":"999","LAUNCH_DATE":"2020-08-18"},{"OBJECT_NAME":"STARLINK-1604","BSTAR":"0.00012314000000","TLE_LINE1":"1 46122U 20057F   22010.83164125  .00001553  00000-0  12314-3 0  9992","RCS_SIZE":"LARGE","FILE":"3269118","MEAN_MOTION_DDOT":"0.0000000000000","OBJECT_TYPE":"PAYLOAD","REF_FRAME":"TEME","OBJECT_ID":"2020-057F","MEAN_MOTION_DOT":"0.00001553","INCLINATION":"53.0536","PERIAPSIS":"545.530","TLE_LINE2":"2 46122  53.0536 255.0319 0002412  62.6805 297.4429 15.06404268 78952","PERIOD":"95.592","MEAN_ANOMALY":"297.4429","SITE":"AFETR","GP_ID":"193623218","EPOCH":"2022-01-10T19:57:33.804000","APOAPSIS":"548.871","COUNTRY_CODE":"US","ELEMENT_SET_NO":"999","LAUNCH_DATE":"2020-08-18","NORAD_CAT_ID":"46122","MEAN_ELEMENT_THEORY":"SGP4","TIME_SYSTEM":"UTC","ECCENTRICITY":"0.00024120","DECAY_DATE":null,"SEMIMAJOR_AXIS":"6925.335","REV_AT_EPOCH":"7895","EPHEMERIS_TYPE":"0","MEAN_MOTION":"15.06404268","CENTER_NAME":"EARTH","RA_OF_ASC_NODE":"255.0319","ARG_OF_PERICENTER":"62.6805","CLASSIFICATION_TYPE":"U"},{"FILE":"3269118","MEAN_MOTION_DDOT":"0.0000000000000","OBJECT_TYPE":"PAYLOAD","REF_FRAME":"TEME","OBJECT_NAME":"STARLINK-1605","BSTAR":"0.00014658000000","TLE_LINE1":"1 46123U 20057G   22010.81691961  .00001902  00000-0  14658-3 0  9995","RCS_SIZE":"LARGE","MEAN_ANOMALY":"303.8973","TLE_LINE2":"2 46123  53.0541 255.1057 0002035  56.2209 303.8973 15.06398975 78972","PERIOD":"95.592","SITE":"AFETR","GP_ID":"193623470","OBJECT_ID":"2020-057G","INCLINATION":"53.0541","MEAN_MOTION_DOT":"0.00001902","PERIAPSIS":"545.807","MEAN_ELEMENT_THEORY":"SGP4","NORAD_CAT_ID":"46123","TIME_SYSTEM":"UTC","EPHEMERIS_TYPE":"0","DECAY_DATE":null,"SEMIMAJOR_AXIS":"6925.352","ECCENTRICITY":"0.00020350","REV_AT_EPOCH":"7897","EPOCH":"2022-01-10T19:36:21.854304","ELEMENT_SET_NO":"999","COUNTRY_CODE":"US","APOAPSIS":"548.626","LAUNCH_DATE":"2020-08-18","CLASSIFICATION_TYPE":"U","CENTER_NAME":"EARTH","MEAN_MOTION":"15.06398975","RA_OF_ASC_NODE":"255.1057","ARG_OF_PERICENTER":"56.2209"},{"EPHEMERIS_TYPE":"0","SEMIMAJOR_AXIS":"6925.306","DECAY_DATE":null,"ECCENTRICITY":"0.00026040","REV_AT_EPOCH":"7770","TIME_SYSTEM":"UTC","MEAN_ELEMENT_THEORY":"SGP4","NORAD_CAT_ID":"46124","LAUNCH_DATE":"2020-08-18","ELEMENT_SET_NO":"999","COUNTRY_CODE":"US","APOAPSIS":"548.974","EPOCH":"2022-01-10T19:46:57.773856","CLASSIFICATION_TYPE":"U","ARG_OF_PERICENTER":"60.2715","RA_OF_ASC_NODE":"255.0817","CENTER_NAME":"EARTH","MEAN_MOTION":"15.06413914","REF_FRAME":"TEME","OBJECT_TYPE":"PAYLOAD","MEAN_MOTION_DDOT":"0.0000000000000","FILE":"3269118","RCS_SIZE":"LARGE","BSTAR":"0.00024526000000","TLE_LINE1":"1 46124U 20057H   22010.82427979  .00003375  00000-0  24526-3 0  9994","OBJECT_NAME":"STARLINK-1614","GP_ID":"193623720","SITE":"AFETR","MEAN_ANOMALY":"299.8533","PERIOD":"95.591","TLE_LINE2":"2 46124  53.0539 255.0817 0002604  60.2715 299.8533 15.06413914 77709","PERIAPSIS":"545.368","INCLINATION":"53.0539","MEAN_MOTION_DOT":"0.00003375","OBJECT_ID":"2020-057H"},{"RCS_SIZE":"LARGE","TLE_LINE1":"1 46125U 20057J   22010.20871715  .00002298  00000-0  17306-3 0  9999","BSTAR":"0.00017306000000","OBJECT_NAME":"STARLINK-1618","REF_FRAME":"TEME","OBJECT_TYPE":"PAYLOAD","MEAN_MOTION_DDOT":"0.0000000000000","FILE":"3268856","PERIAPSIS":"545.740","INCLINATION":"53.0539","MEAN_MOTION_DOT":"0.00002298","OBJECT_ID":"2020-057J","SITE":"AFETR","GP_ID":"193592066","TLE_LINE2":"2 46125  53.0539 297.8217 0002072  62.6730 297.4470 15.06412539 78303","PERIOD":"95.591","MEAN_ANOMALY":"297.4470","LAUNCH_DATE":"2020-08-18","APOAPSIS":"548.610","COUNTRY_CODE":"US","ELEMENT_SET_NO":"999","EPOCH":"2022-01-10T05:00:33.161760","DECAY_DATE":null,"REV_AT_EPOCH":"7830","SEMIMAJOR_AXIS":"6925.310","ECCENTRICITY":"0.00020720","EPHEMERIS_TYPE":"0","TIME_SYSTEM":"UTC","MEAN_ELEMENT_THEORY":"SGP4","NORAD_CAT_ID":"46125","ARG_OF_PERICENTER":"62.6730","RA_OF_ASC_NODE":"297.8217","MEAN_MOTION":"15.06412539","CENTER_NAME":"EARTH","CLASSIFICATION_TYPE":"U"}];
